NORAD_CAT_ID,OBJECT_NAME,OBJECT_TYPE,EPOCH,MEAN_MOTION,ECCENTRICITY,INCLINATION,RA_OF_ASC_NODE,ARG_OF_PERICENTER,MEAN_ANOMALY,BSTAR,MEAN_MOTION_DOT,MEAN_MOTION_DDOT,TLE_LINE0,TLE_LINE1,TLE_LINE2,SEMIMAJOR_AXIS,PERIOD,APOGEE,PERIGEE,DECAYED
53163.0,STARLINK-4104,PAYLOAD,2023-05-14 07:50:48,15.08841083,0.0001149,53.2166,109.5977,85.8175,274.2949,6.4786e-05,7.43e-06,0.0,0 STARLINK-4104,1 53163U 22083AH  23134.32694798  .00000743  00000-0  64786-4 0  9993,2 53163  53.2166 109.5977 0001149  85.8175 274.2949 15.08841083 45813,6917.877,95.437,540.537,538.947,0.0
53163.0,STARLINK-4104,PAYLOAD,2023-05-14 15:47:43,15.08841968,0.0001154,53.2167,108.1111,85.1412,274.9711,6.261e-05,7.09e-06,0.0,0 STARLINK-4104,1 53163U 22083AH  23134.65814699  .00000709  00000-0  62610-4 0  9999,2 53163  53.2167 108.1111 0001154  85.1412 274.9711 15.08841968 45863,6917.874,95.437,540.538,538.941,0.0
53163.0,STARLINK-4104,PAYLOAD,2023-05-15 04:30:48,15.08847644,0.0001164,53.2166,105.7306,92.2605,267.8521,8.3303e-05,1.038e-05,0.0,0 STARLINK-4104,1 53163U 22083AH  23135.18806134  .00001038  00000-0  83303-4 0  9991,2 53163  53.2166 105.7306 0001164  92.2605 267.8521 15.08847644 46571,6917.857,95.437,540.527,538.917,0.0
53163.0,STARLINK-4104,PAYLOAD,2023-05-16 02:46:13,15.08832779,0.0001152,53.2168,101.5668,94.7896,265.3228,1.4923e-05,-5e-07,0.0,0 STARLINK-4104,1 53163U 22083AH  23136.11543332 -.00000050  00000-0  14923-4 0  9999,2 53163  53.2168 101.5668 0001152  94.7896 265.3228 15.08832779 46710,6917.902,95.438,540.564,538.971,0.0
53163.0,STARLINK-4104,PAYLOAD,2023-05-16 07:32:22,15.08834457,0.000117,53.2169,100.6751,94.8353,265.2773,-5.1009e-07,-2.96e-06,0.0,0 STARLINK-4104,1 53163U 22083AH  23136.31415370 -.00000296  00000-0 -51009-6 0  9992,2 53163  53.2169 100.6751 0001170  94.8353 265.2773 15.08834457 46116,6917.897,95.438,540.572,538.953,0.0
53163.0,STARLINK-4104,PAYLOAD,2023-05-17 02:36:59,15.08843383,0.000115,53.2179,97.1068,99.3528,260.7594,1.9843e-05,2.8e-07,0.0,0 STARLINK-4104,1 53163U 22083AH  23137.10902701  .00000028  00000-0  19843-4 0  9998,2 53163  53.2179  97.1068 0001150  99.3528 260.7594 15.08843383 46861,6917.87,95.437,540.531,538.939,0.0
53163.0,STARLINK-4104,PAYLOAD,2023-05-17 04:12:22,15.08847768,0.0001108,53.2169,96.8107,82.6698,277.442,2.2079e-05,6.4e-07,0.0,0 STARLINK-4104,1 53163U 22083AH  23137.17526485  .00000064  00000-0  22079-4 0  9991,2 53163  53.2169  96.8107 0001108  82.6698 277.4420 15.08847768 46242,6917.857,95.437,540.488,538.955,0.0
53163.0,STARLINK-4104,PAYLOAD,2023-05-18 02:27:47,15.08831186,0.0001165,53.2169,92.6479,79.537,280.5753,4.9259e-05,4.96e-06,0.0,0 STARLINK-4104,1 53163U 22083AH  23138.10263614  .00000496  00000-0  49259-4 0  9995,2 53163  53.2169  92.6479 0001165  79.5370 280.5753 15.08831186 47010,6917.907,95.438,540.578,538.966,0.0
53163.0,STARLINK-4104,PAYLOAD,2023-05-18 04:03:10,15.08831044,0.0001175,53.2173,92.3527,79.8543,280.2581,6.4069e-05,7.32e-06,0.0,0 STARLINK-4104,1 53163U 22083AH  23138.16887605  .00000732  00000-0  64069-4 0  9992,2 53163  53.2173  92.3527 0001175  79.8543 280.2581 15.08831044 46391,6917.908,95.438,540.586,538.96,0.0
53163.0,STARLINK-4104,PAYLOAD,2023-05-18 19:57:02,15.08821131,0.0001074,53.217,89.3788,89.4653,270.6462,0.00022662,3.319e-05,0.0,0 STARLINK-4104,1 53163U 22083AH  23138.83128085  .00003319  00000-0  22662-3 0  9992,2 53163  53.2170  89.3788 0001074  89.4653 270.6462 15.08821131 46498,6917.938,95.439,540.546,539.06,0.0
53163.0,STARLINK-4104,PAYLOAD,2023-05-19 05:29:21,15.08838711,0.0001111,53.2172,87.5932,86.3721,273.7398,9.1738e-07,-2.73e-06,0.0,0 STARLINK-4104,1 53163U 22083AH  23139.22871628 -.00000273  00000-0  91738-6 0  9994,2 53163  53.2172  87.5932 0001111  86.3721 273.7398 15.08838711 47186,6917.884,95.438,540.518,538.981,0.0
53163.0,STARLINK-4104,PAYLOAD,2023-05-20 19:38:35,15.08844423,0.0001182,53.2176,80.4558,80.1155,279.9971,0.00010429,1.373e-05,0.0,0 STARLINK-4104,1 53163U 22083AH  23140.81847127  .00001373  00000-0  10429-3 0  9994,2 53163  53.2176  80.4558 0001182  80.1155 279.9971 15.08844423 46795,6917.867,95.437,540.55,538.914,0.0
53163.0,STARLINK-4104,PAYLOAD,2023-05-21 02:00:07,15.08849125,0.0001156,53.2174,79.267,84.1038,276.0085,0.00014423,2.009e-05,0.0,0 STARLINK-4104,1 53163U 22083AH  23141.08342561  .00002009  00000-0  14423-3 0  9991,2 53163  53.2174  79.2670 0001156  84.1038 276.0085 15.08849125 47462,6917.852,95.437,540.517,538.918,0.0
53163.0,STARLINK-4104,PAYLOAD,2023-05-21 03:35:30,15.08852231,0.0001172,53.2175,78.9694,85.175,274.9376,0.000168,2.388e-05,0.0,0 STARLINK-4104,1 53163U 22083AH  23141.14966317  .00002388  00000-0  16800-3 0  9990,2 53163  53.2175  78.9694 0001172  85.1750 274.9376 15.08852231 46848,6917.843,95.437,540.519,538.897,0.0
53163.0,STARLINK-4104,PAYLOAD,2023-05-21 19:29:23,15.08836966,0.0001174,53.2174,75.997,91.1409,268.9718,-5.7353e-05,-1.2e-05,0.0,0 STARLINK-4104,1 53163U 22083AH  23141.81208083 -.00001200  00000-0 -57353-4 0  9996,2 53163  53.2174  75.9970 0001174  91.1409 268.9718 15.08836966 47572,6917.89,95.438,540.567,538.943,0.0
53163.0,STARLINK-4104,PAYLOAD,2023-05-22 12:58:38,15.08836308,0.0001123,53.2182,72.7249,104.4926,255.619,-3.8427e-05,-8.99e-06,0.0,0 STARLINK-4104,1 53163U 22083AH  23142.54072245 -.00000899  00000-0 -38427-4 0  9990,2 53163  53.2182  72.7249 0001123 104.4926 255.6190 15.08836308 47051,6917.892,95.438,540.534,538.98,0.0
53163.0,STARLINK-4104,PAYLOAD,2023-05-22 19:20:10,15.08841759,0.0001093,53.2184,71.5343,102.522,257.5894,-7.0164e-05,-1.404e-05,0.0,0 STARLINK-4104,1 53163U 22083AH  23142.80568108 -.00001404  00000-0 -70164-4 0  9994,2 53163  53.2184  71.5343 0001093 102.5220 257.5894 15.08841759 47099,6917.875,95.437,540.496,538.984,0.0
53163.0,STARLINK-4104,PAYLOAD,2023-05-23 01:41:42,15.08847212,0.0001158,53.218,70.3457,100.2833,259.829,7.3533e-06,-1.71e-06,0.0,0 STARLINK-4104,1 53163U 22083AH  23143.07063515 -.00000171  00000-0  73533-5 0  9999,2 53163  53.2180  70.3457 0001158 100.2833 259.8290 15.08847212 47764,6917.858,95.437,540.524,538.922,0.0
53163.0,STARLINK-4104,PAYLOAD,2023-05-24 01:32:30,15.08837572,0.0001048,53.2175,65.8868,96.1771,263.934,0.00018445,2.649e-05,0.0,0 STARLINK-4104,1 53163U 22083AH  23144.06423925  .00002649  00000-0  18445-3 0  9994,2 53163  53.2175  65.8868 0001048  96.1771 263.9340 15.08837572 47912,6917.888,95.438,540.478,539.028,0.0
53163.0,STARLINK-4104,PAYLOAD,2023-05-25 22:03:18,15.0884017,0.0001159,53.218,57.5631,106.4863,253.6256,1.1309e-05,-1.08e-06,0.0,0 STARLINK-4104,1 53163U 22083AH  23145.91896356 -.00000108  00000-0  11309-4 0  9993,2 53163  53.2180  57.5631 0001159 106.4863 253.6256 15.08840170 47565,6917.88,95.438,540.547,538.943,0.0
53163.0,STARLINK-4104,PAYLOAD,2023-05-26 04:24:50,15.08844334,0.0001071,53.2179,56.3718,98.514,261.5973,3.1553e-05,2.14e-06,0.0,0 STARLINK-4104,1 53163U 22083AH  23146.18392031  .00000214  00000-0  31553-4 0  9994,2 53163  53.2179  56.3718 0001071  98.5140 261.5973 15.08844334 48233,6917.867,95.437,540.473,538.991,0.0
53163.0,STARLINK-4104,PAYLOAD,2023-05-26 21:54:05,15.08835452,0.0001128,53.2175,53.0974,103.8297,256.2821,-6.7829e-06,-3.96e-06,0.0,0 STARLINK-4104,1 53163U 22083AH  23146.91256860 -.00000396  00000-0 -67829-5 0  9993,2 53163  53.2175  53.0974 0001128 103.8297 256.2821 15.08835452 47719,6917.894,95.438,540.54,538.979,0.0
53163.0,STARLINK-4104,PAYLOAD,2023-05-27 02:40:15,15.08839086,0.0001095,53.2177,52.205,98.5272,261.5844,2.1567e-05,5.5e-07,0.0,0 STARLINK-4104,1 53163U 22083AH  23147.11128601  .00000055  00000-0  21567-4 0  9995,2 53163  53.2177  52.2050 0001095  98.5272 261.5844 15.08839086 48377,6917.883,95.438,540.506,538.991,0.0
53163.0,STARLINK-4104,PAYLOAD,2023-05-27 21:44:52,15.08839773,0.0001171,53.2185,48.6352,86.7372,273.3754,9.4642e-05,1.219e-05,0.0,0 STARLINK-4104,1 53163U 22083AH  23147.90616490  .00001219  00000-0  94642-4 0  9997,2 53163  53.2185  48.6352 0001171  86.7372 273.3754 15.08839773 47862,6917.881,95.438,540.556,538.936,0.0
53163.0,STARLINK-4104,PAYLOAD,2023-05-28 02:31:01,15.08843834,0.0001245,53.2189,47.7434,85.9354,274.178,0.00012781,1.747e-05,0.0,0 STARLINK-4104,1 53163U 22083AH  23148.10488178  .00001747  00000-0  12781-3 0  9999,2 53163  53.2189  47.7434 0001245  85.9354 274.1780 15.08843834 47894,6917.869,95.437,540.595,538.872,0.0
53163.0,STARLINK-4104,PAYLOAD,2023-05-28 21:35:39,15.08840188,0.00013,53.2193,44.1735,83.6402,276.4738,7.6861e-05,9.36e-06,0.0,0 STARLINK-4104,1 53163U 22083AH  23148.89976614  .00000936  00000-0  76861-4 0  9991,2 53163  53.2193  44.1735 0001300  83.6402 276.4738 15.08840188 48017,6917.88,95.438,540.644,538.845,0.0
53163.0,STARLINK-4104,PAYLOAD,2023-05-29 02:21:48,15.08844318,0.0001349,53.2192,43.2801,81.9046,278.2099,0.00010976,1.46e-05,0.0,0 STARLINK-4104,1 53163U 22083AH  23149.09848242  .00001460  00000-0  10976-3 0  9996,2 53163  53.2192  43.2801 0001349  81.9046 278.2099 15.08844318 48040,6917.867,95.437,540.665,538.799,0.0
53163.0,STARLINK-4104,PAYLOAD,2023-05-29 23:01:50,15.08836079,0.0001234,53.2194,39.4191,85.5716,274.5417,-2.4045e-05,-6.7e-06,0.0,0 STARLINK-4104,1 53163U 22083AH  23149.95961245 -.00000670  00000-0 -24045-4 0  9997,2 53163  53.2194  39.4191 0001234  85.5716 274.5417 15.08836079 48170,6917.892,95.438,540.611,538.904,0.0
53163.0,STARLINK-4104,PAYLOAD,2023-05-30 22:52:36,15.08852825,0.0001161,53.2192,34.9582,89.6671,270.4454,6.4536e-05,7.4e-06,0.0,0 STARLINK-4104,1 53163U 22083AH  23150.95319854  .00000740  00000-0  64536-4 0  9997,2 53163  53.2192  34.9582 0001161  89.6671 270.4454 15.08852825 48326,6917.841,95.437,540.509,538.903,0.0
53163.0,STARLINK-4104,PAYLOAD,2023-05-31 02:03:22,15.0885463,0.0001166,53.2189,34.3637,88.4066,271.7059,9.8383e-05,1.279e-05,0.0,0 STARLINK-4104,1 53163U 22083AH  23151.08567592  .00001279  00000-0  98383-4 0  9991,2 53163  53.2189  34.3637 0001166  88.4066 271.7059 15.08854630 48979,6917.836,95.437,540.507,538.894,0.0
